ONEWEB-0207             
1 48242U 21031AJ  26021.34698576  .00000344  00000+0  89244-3 0  9996
2 48242  87.9032 318.9573 0001909  82.6325 277.5021 13.14501476229001
ONEWEB-0208             
1 48243U 21031AK  26021.32874633  .00000162  00000+0  40289-3 0  9999
2 48243  87.9028 318.9738 0001485  84.6973 275.4327 13.14504897229017
ONEWEB-0200             
1 48244U 21031AL  26021.36838671  .00000075  00000+0  16847-3 0  9992
2 48244  87.9031 318.9553 0001683  81.5173 278.6147 13.14504597228948
ONEWEB-0217             
1 48245U 21031AM  26021.30812113 -.00000097  00000+0 -29646-3 0  9997
2 48245  87.9036 318.9649 0001472  87.1906 272.9392 13.14501197228887
ONEWEB-0211             
1 48767U 21045A   26021.24197937  .00000148  00000+0  35689-3 0  9993
2 48767  87.9011 288.4444 0001125  79.9773 280.1484 13.16139721225117
ONEWEB-0223             
1 48768U 21045B   26021.47868489  .00000119  00000+0  28246-3 0  9995
2 48768  87.9009 288.4689 0001167  68.1062 292.0193 13.15548557225112
ONEWEB-0230             
1 48769U 21045C   26021.45015311  .00000043  00000+0  81223-4 0  9993
2 48769  87.9001 288.5014 0001717  73.0890 287.0428 13.15550152225370
ONEWEB-0237             
1 48770U 21045D   26021.43906008  .00000193  00000+0  47988-3 0  9990
2 48770  87.9006 288.5047 0001389  66.0155 294.1121 13.15550746225091
